     2              NAVIGATION DATA                         RINEX VERSION / TYPE
CCRINEXN V1.6.0 UX  CDDIS               30-OCT-16 15:33     PGM / RUN BY / DATE 
IGS BROADCAST EPHEMERIS FILE                                COMMENT             
    0.1211D-07 -0.7451D-08 -0.1192D-06  0.5960D-07          ION ALPHA           
    0.9626D+05 -0.3277D+05 -0.1966D+06  0.1966D+06          ION BETA            
    0.931322574615D-09 0.444089209850D-14   147456     1921 DELTA-UTC: A0,A1,T,W
    17                                                      LEAP SECONDS        
                                                            END OF HEADER       
27 16 10 29 10  0  0.0 0.158247072250D-03 0.511590769747D-11 0.000000000000D+00
    0.610000000000D+02 0.275000000000D+02 0.419517474587D-08 0.233365333787D+01
    0.148266553879D-05 0.387540843803D-02 0.113602727652D-04 0.515365681457D+04
    0.554400000000D+06-0.100582838059D-06 0.307206336400D+00 0.353902578354D-07
    0.973194045644D+00 0.165375000000D+03 0.323734507745D+00-0.774675125471D-08
    0.491449042254D-09 0.000000000000D+00 0.192000000000D+04 0.000000000000D+00
    0.200000000000D+01 0.000000000000D+00 0.139698386192D-08 0.610000000000D+02
    0.550950000000D+06 0.400000000000D+01 0.000000000000D+00 0.000000000000D+00
28 16 10 29 10  0  0.0 0.562925357372D-03 0.295585778076D-11 0.000000000000D+00
    0.540000000000D+02-0.107531250000D+03 0.374622747398D-08-0.312164562075D+01
   -0.558979809284D-05 0.200257465476D-01 0.889599323273D-05 0.515363720703D+04
    0.554400000000D+06 0.324100255966D-06-0.656363801718D+00-0.279396772385D-07
    0.989357416422D+00 0.218562500000D+03-0.160672868012D+01-0.739530804426D-08
   -0.271082720255D-09 0.100000000000D+01 0.192000000000D+04 0.000000000000D+00
    0.200000000000D+01 0.000000000000D+00-0.111758708954D-07 0.540000000000D+02
    0.547200000000D+06 0.400000000000D+01 0.000000000000D+00 0.000000000000D+00
29 16 10 29 10  0  0.0 0.645732507110D-03-0.159161572810D-11 0.000000000000D+00
    0.101000000000D+03 0.369375000000D+02 0.409659921123D-08-0.188746612664D+01
    0.196881592274D-05 0.490407575853D-03 0.105611979961D-04 0.515372905159D+04
    0.554400000000D+06 0.149011611938D-07 0.367856004371D+00-0.372529029846D-07
    0.979259128451D+00 0.183687500000D+03-0.808383075828D-02-0.777675250439D-08
    0.450018745087D-09 0.000000000000D+00 0.192000000000D+04 0.000000000000D+00
    0.280000000000D+01 0.000000000000D+00-0.102445483208D-07 0.101000000000D+03
    0.547200000000D+06 0.400000000000D+01 0.000000000000D+00 0.000000000000D+00
30 16 10 29 10  0  0.0 0.155600253493D-03 0.113686837722D-11 0.000000000000D+00
    0.930000000000D+02 0.165000000000D+02 0.510235539072D-08-0.495320894869D+00
    0.853091478348D-06 0.238330743741D-02 0.157952308655D-05 0.515375223541D+04
    0.554400000000D+06 0.540167093277D-07-0.171798207715D+01 0.186264514923D-07
    0.950147819390D+00 0.340500000000D+03-0.312021973790D+01-0.865250326863D-08
    0.134648465792D-09 0.100000000000D+01 0.192000000000D+04 0.000000000000D+00
    0.280000000000D+01 0.000000000000D+00 0.372529029846D-08 0.930000000000D+02
    0.547200000000D+06 0.400000000000D+01 0.000000000000D+00 0.000000000000D+00
31 16 10 29 10  0  0.0 0.239804387093D-03-0.216004991671D-11 0.000000000000D+00
    0.380000000000D+02 0.103437500000D+02 0.471983945740D-08-0.639051201996D+00
    0.394880771637D-06 0.842000148259D-02 0.201165676117D-05 0.515357625198D+04
    0.554400000000D+06-0.372529029846D-08-0.174989997114D+01-0.184401869774D-06
    0.969174488042D+00 0.340187500000D+03-0.366549134300D+00-0.850249702027D-08
    0.159292349451D-09 0.000000000000D+00 0.192000000000D+04 0.000000000000D+00
    0.200000000000D+01 0.000000000000D+00-0.135041773319D-07 0.380000000000D+02
    0.547200000000D+06 0.400000000000D+01 0.000000000000D+00 0.000000000000D+00
32 16 10 29 10  0  0.0-0.174749642610D-03-0.163709046319D-10 0.000000000000D+00
    0.830000000000D+02 0.963437500000D+02 0.418553148704D-08 0.284509126266D+01
    0.504963099956D-05 0.602801912464D-03 0.103116035461D-04 0.515366632271D+04
    0.554400000000D+06 0.484287738800D-07-0.283637257081D+01 0.372529029846D-07
    0.959375305375D+00 0.178812500000D+03-0.245514460281D+01-0.790532928870D-08
    0.326085011321D-09 0.000000000000D+00 0.192000000000D+04 0.000000000000D+00
    0.200000000000D+01 0.000000000000D+00 0.465661287308D-09 0.830000000000D+02
    0.547200000000D+06 0.400000000000D+01 0.000000000000D+00 0.000000000000D+00
 2 16 10 29 11 59 44.0 0.533182639629D-03-0.534328137292D-11 0.000000000000D+00
    0.300000000000D+01 0.210625000000D+02 0.542879755978D-08 0.167603673846D+01
    0.804662704468D-06 0.160571708111D-01 0.429525971413D-05 0.515365609741D+04
    0.561584000000D+06-0.378116965294D-06 0.131586701247D+01-0.234693288803D-06
    0.944002695947D+00 0.292093750000D+03-0.207304305328D+01-0.862535928083D-08
    0.147148986489D-09 0.100000000000D+01 0.192000000000D+04 0.000000000000D+00
    0.200000000000D+01 0.000000000000D+00-0.200234353542D-07 0.300000000000D+01
    0.561570000000D+06 0.400000000000D+01 0.000000000000D+00 0.000000000000D+00
 3 16 10 29 11 59 44.0-0.951038673520D-04-0.216004991671D-11 0.000000000000D+00
    0.100000000000D+01-0.486875000000D+02 0.458483383388D-08-0.871636830144D-01
   -0.259466469288D-05 0.311611569487D-03 0.946596264839D-05 0.515359413147D+04
    0.561584000000D+06 0.298023223877D-07 0.240700464870D+01-0.558793544769D-08
    0.959494139674D+00 0.193156250000D+03 0.747835771162D+00-0.803390607301D-08
   -0.645384025692D-09 0.100000000000D+01 0.192000000000D+04 0.000000000000D+00
    0.200000000000D+01 0.000000000000D+00 0.186264514923D-08 0.100000000000D+01
    0.557550000000D+06 0.400000000000D+01 0.000000000000D+00 0.000000000000D+00
 8 16 10 29 11 59 44.0-0.371015630662D-04-0.136424205266D-11 0.000000000000D+00
    0.100000000000D+01 0.284062500000D+02 0.438625413366D-08-0.215323296632D+01
    0.160560011864D-05 0.189279101323D-02 0.114999711513D-04 0.515377263451D+04
    0.561584000000D+06-0.372529029846D-08 0.303239607695D+00 0.484287738800D-07
    0.965094832302D+00 0.159531250000D+03-0.101399382731D+01-0.782532595624D-08
    0.508235455761D-09 0.000000000000D+00 0.192000000000D+04 0.000000000000D+00
    0.200000000000D+01 0.000000000000D+00 0.512227416039D-08 0.100000000000D+01
    0.558600000000D+06 0.400000000000D+01 0.000000000000D+00 0.000000000000D+00
12 16 10 29 11 59 44.0 0.389412511140D-03 0.113686837722D-12 0.000000000000D+00
    0.140000000000D+02-0.903437500000D+02 0.385158900557D-08-0.408282339627D-01
   -0.470876693726D-05 0.606121274177D-02 0.892207026482D-05 0.515364110565D+04
    0.561584000000D+06 0.111758708954D-07-0.680015945234D+00 0.968575477600D-07
    0.990096497265D+00 0.229093750000D+03 0.784028771134D+00-0.782425448303D-08
   -0.256082095419D-09 0.100000000000D+01 0.192000000000D+04 0.000000000000D+00
    0.200000000000D+01 0.000000000000D+00-0.125728547573D-07 0.140000000000D+02
    0.559140000000D+06 0.400000000000D+01 0.000000000000D+00 0.000000000000D+00
17 16 10 29 11 59 44.0-0.200213864446D-03 0.682121026330D-12 0.000000000000D+00
    0.260000000000D+02 0.207812500000D+02 0.401445293236D-08-0.297447521056D+01
    0.108964741230D-05 0.113686359255D-01 0.111870467663D-04 0.515376704025D+04
    0.561584000000D+06 0.234693288803D-06 0.357920183692D+00-0.139698386192D-06
    0.978238829402D+00 0.169375000000D+03-0.191696033695D+01-0.753531387607D-08
    0.496092092798D-09 0.100000000000D+01 0.192000000000D+04 0.000000000000D+00
    0.200000000000D+01 0.000000000000D+00-0.107102096081D-07 0.260000000000D+02
    0.554400000000D+06 0.400000000000D+01 0.000000000000D+00 0.000000000000D+00
18 16 10 29 11 59 44.0 0.571295153350D-03 0.341060513165D-11 0.000000000000D+00
    0.800000000000D+01-0.465937500000D+02 0.536129496353D-08-0.139247239731D+01
   -0.233389437199D-05 0.172701618867D-01 0.873394310474D-05 0.515372472000D+04
    0.561584000000D+06 0.193715095520D-06 0.236859488896D+01 0.476837158203D-06
    0.925180064869D+00 0.191937500000D+03-0.185346704443D+01-0.842713632210D-08
   -0.660384635864D-09 0.100000000000D+01 0.192000000000D+04 0.000000000000D+00
    0.200000000000D+01 0.000000000000D+00-0.111758708954D-07 0.800000000000D+01
    0.557400000000D+06 0.000000000000D+00 0.000000000000D+00 0.000000000000D+00
19 16 10 29 11 59 44.0-0.520945992321D-03 0.682121026330D-12 0.000000000000D+00
    0.180000000000D+02 0.238125000000D+02 0.422089010273D-08 0.175045690990D+00
    0.137835741043D-05 0.103544176091D-01 0.106990337372D-04 0.515363380241D+04
    0.561584000000D+06-0.316649675369D-07 0.406253904231D+00 0.119209289551D-06
    0.975371354898D+00 0.184093750000D+03 0.881551523359D+00-0.791997275580D-08
    0.453233164695D-09 0.100000000000D+01 0.192000000000D+04 0.000000000000D+00
    0.200000000000D+01 0.000000000000D+00-0.149011611938D-07 0.180000000000D+02
    0.558540000000D+06 0.400000000000D+01 0.000000000000D+00 0.000000000000D+00
29 16 10 29 11 59 44.0 0.645722262561D-03-0.159161572810D-11 0.000000000000D+00
    0.700000000000D+01 0.312812500000D+02 0.412481467223D-08-0.838992499314D+00
    0.166893005371D-05 0.490813981742D-03 0.107977539301D-04 0.515372982979D+04
    0.561584000000D+06-0.186264514923D-07 0.367799880981D+00 0.204890966415D-07
    0.979262605807D+00 0.183000000000D+03-0.874661310869D-02-0.776425198369D-08
    0.506449667090D-09 0.000000000000D+00 0.192000000000D+04 0.000000000000D+00
    0.200000000000D+01 0.000000000000D+00-0.102445483208D-07 0.700000000000D+01
    0.554400000000D+06 0.400000000000D+01 0.000000000000D+00 0.000000000000D+00
